STARLINK-5707           
1 56879U 23083D   26016.95103614  .00000302  00000+0  37458-4 0  9990
2 56879  43.0057   3.2545 0001348 265.6558  94.4130 15.02538428143881
STARLINK-6177           
1 56880U 23083E   26017.00086837 -.00000072  00000+0  97825-5 0  9996
2 56880  43.0074   2.7683 0001309 274.3891  85.6802 15.02535989143891
STARLINK-5853           
1 56881U 23083F   26016.94881910 -.00000429  00000+0 -16657-4 0  9994
2 56881  43.0052   3.2348 0001031 269.8693  90.2031 15.02536096143888
STARLINK-6175           
1 56882U 23083G   26017.00200164 -.00001941  00000+0 -12869-3 0  9999
2 56882  43.0059   2.7695 0001384 277.1954  82.8731 15.02523425143895
STARLINK-6171           
1 56883U 23083H   26016.94548878 -.00000180  00000+0  17158-5 0  9990
2 56883  43.0057   3.2112 0001125 272.6088  87.4626 15.02535008143888
STARLINK-5515           
1 56884U 23083J   26016.99531487  .00000246  00000+0  33286-4 0  9995
2 56884  43.0054   2.7187 0001206 269.5034  90.5671 15.02538753143894
STARLINK-5095           
1 56885U 23083K   26016.41033325  .00000349  00000+0  40933-4 0  9992
2 56885  43.0054   6.0719 0001154 270.6598  89.4112 15.02540592143805
STARLINK-5496           
1 56886U 23083L   26016.99420874 -.00000001  00000+0  15007-4 0  9995
2 56886  43.0055   2.7135 0001118 267.5402  92.5312 15.02537136143897
STARLINK-6180           
1 56887U 23083M   26016.99864879 -.00000201  00000+0  17318-6 0  9994
2 56887  43.0059   2.7435 0001444 270.1930  89.8747 15.02540207143897
STARLINK-6181           
1 56888U 23083N   26016.38258553  .00000401  00000+0  44715-4 0  9994
2 56888  43.0050   5.8644 0001109 273.5072  86.5644 15.02538944143803
STARLINK-6169           
1 56889U 23083P   26016.32610202  .00000079  00000+0  20944-4 0  9991
2 56889  43.0051   6.2982 0001197 268.7038  91.3667 15.02536436143791
STARLINK-5528           
1 56890U 23083Q   26016.98199929 -.00000015  00000+0  13954-4 0  9997
2 56890  43.0050   2.6228 0001204 272.0449  88.0255 15.02533274143892
STARLINK-6213           
1 56891U 23083R   26016.65515869  .00000359  00000+0  41620-4 0  9998
2 56891  43.0050   4.4649 0001246 267.5416  92.5283 15.02538278143844
STARLINK-6219           
1 56892U 23083S   26016.64183749 -.00000709  00000+0 -37408-4 0  9996
2 56892  43.0051   4.3676 0001164 273.5456  86.5253 15.02543679143846
STARLINK-6216           
1 56893U 23083T   26016.65182654  .00000119  00000+0  23889-4 0  9993
2 56893  43.0057   4.4441 0001301 275.3849  84.6845 15.02539590143969
STARLINK-6144           
1 56894U 23083U   26016.64295191  .00001134  00000+0  99026-4 0  9998
2 56894  43.0052   4.3776 0001227 264.8863  95.1839 15.02539267143962
STARLINK-6208           
1 56895U 23083V   26016.97200891  .00000019  00000+0  16476-4 0  9997
2 56895  43.0050   2.5474 0001159 273.7166  86.3543 15.02539344143897
