[{"OBJECT_NAME":"STARLINK-5707","OBJECT_ID":"2023-083D","EPOCH":"2026-01-16T22:49:29.522496","MEAN_MOTION":15.02538428,"ECCENTRICITY":0.00013483,"INCLINATION":43.0057,"RA_OF_ASC_NODE":3.2545,"ARG_OF_PERICENTER":265.6558,"MEAN_ANOMALY":94.413,"EPHEMERIS_TYPE":0,"CLASSIFICATION_TYPE":"U","NORAD_CAT_ID":56879,"ELEMENT_SET_NO":999,"REV_AT_EPOCH":14388,"BSTAR":3.7458085e-5,"MEAN_MOTION_DOT":3.02e-6,"MEAN_MOTION_DDOT":0},{"OBJECT_NAME":"STARLINK-6177","OBJECT_ID":"2023-083E","EPOCH":"2026-01-17T00:01:15.027168","MEAN_MOTION":15.02535989,"ECCENTRICITY":0.0001309,"INCLINATION":43.0074,"RA_OF_ASC_NODE":2.7683,"ARG_OF_PERICENTER":274.3891,"MEAN_ANOMALY":85.6802,"EPHEMERIS_TYPE":0,"CLASSIFICATION_TYPE":"U","NORAD_CAT_ID":56880,"ELEMENT_SET_NO":999,"REV_AT_EPOCH":14389,"BSTAR":9.782454e-6,"MEAN_MOTION_DOT":-7.2e-7,"MEAN_MOTION_DDOT":0},{"OBJECT_NAME":"STARLINK-5853","OBJECT_ID":"2023-083F","EPOCH":"2026-01-16T22:46:17.970240","MEAN_MOTION":15.02536096,"ECCENTRICITY":0.00010315,"INCLINATION":43.0052,"RA_OF_ASC_NODE":3.2348,"ARG_OF_PERICENTER":269.8693,"MEAN_ANOMALY":90.2031,"EPHEMERIS_TYPE":0,"CLASSIFICATION_TYPE":"U","NORAD_CAT_ID":56881,"ELEMENT_SET_NO":999,"REV_AT_EPOCH":14388,"BSTAR":-1.6656971e-5,"MEAN_MOTION_DOT":-4.29e-6,"MEAN_MOTION_DDOT":0},{"OBJECT_NAME":"STARLINK-6175","OBJECT_ID":"2023-083G","EPOCH":"2026-01-17T00:02:52.941696","MEAN_MOTION":15.02523425,"ECCENTRICITY":0.00013845,"INCLINATION":43.0059,"RA_OF_ASC_NODE":2.7695,"ARG_OF_PERICENTER":277.1954,"MEAN_ANOMALY":82.8731,"EPHEMERIS_TYPE":0,"CLASSIFICATION_TYPE":"U","NORAD_CAT_ID":56882,"ELEMENT_SET_NO":999,"REV_AT_EPOCH":14389,"BSTAR":-0.00012869374,"MEAN_MOTION_DOT":-1.941e-5,"MEAN_MOTION_DDOT":0},{"OBJECT_NAME":"STARLINK-6171","OBJECT_ID":"2023-083H","EPOCH":"2026-01-16T22:41:30.230592","MEAN_MOTION":15.02535008,"ECCENTRICITY":0.00011258,"INCLINATION":43.0057,"RA_OF_ASC_NODE":3.2112,"ARG_OF_PERICENTER":272.6088,"MEAN_ANOMALY":87.4626,"EPHEMERIS_TYPE":0,"CLASSIFICATION_TYPE":"U","NORAD_CAT_ID":56883,"ELEMENT_SET_NO":999,"REV_AT_EPOCH":14388,"BSTAR":1.715781e-6,"MEAN_MOTION_DOT":-1.8e-6,"MEAN_MOTION_DDOT":0},{"OBJECT_NAME":"STARLINK-5515","OBJECT_ID":"2023-083J","EPOCH":"2026-01-16T23:53:15.204768","MEAN_MOTION":15.02538753,"ECCENTRICITY":0.00012062,"INCLINATION":43.0054,"RA_OF_ASC_NODE":2.7187,"ARG_OF_PERICENTER":269.5034,"MEAN_ANOMALY":90.5671,"EPHEMERIS_TYPE":0,"CLASSIFICATION_TYPE":"U","NORAD_CAT_ID":56884,"ELEMENT_SET_NO":999,"REV_AT_EPOCH":14389,"BSTAR":3.3285831e-5,"MEAN_MOTION_DOT":2.46e-6,"MEAN_MOTION_DDOT":0},{"OBJECT_NAME":"STARLINK-5095","OBJECT_ID":"2023-083K","EPOCH":"2026-01-16T09:50:52.792800","MEAN_MOTION":15.02540592,"ECCENTRICITY":0.00011549,"INCLINATION":43.0054,"RA_OF_ASC_NODE":6.0719,"ARG_OF_PERICENTER":270.6598,"MEAN_ANOMALY":89.4112,"EPHEMERIS_TYPE":0,"CLASSIFICATION_TYPE":"U","NORAD_CAT_ID":56885,"ELEMENT_SET_NO":999,"REV_AT_EPOCH":14380,"BSTAR":4.0933107e-5,"MEAN_MOTION_DOT":3.49e-6,"MEAN_MOTION_DDOT":0},{"OBJECT_NAME":"STARLINK-5496","OBJECT_ID":"2023-083L","EPOCH":"2026-01-16T23:51:39.635136","MEAN_MOTION":15.02537136,"ECCENTRICITY":0.00011182,"INCLINATION":43.0055,"RA_OF_ASC_NODE":2.7135,"ARG_OF_PERICENTER":267.5402,"MEAN_ANOMALY":92.5312,"EPHEMERIS_TYPE":0,"CLASSIFICATION_TYPE":"U","NORAD_CAT_ID":56886,"ELEMENT_SET_NO":999,"REV_AT_EPOCH":14389,"BSTAR":1.5006963e-5,"MEAN_MOTION_DOT":-1.0e-8,"MEAN_MOTION_DDOT":0},{"OBJECT_NAME":"STARLINK-6180","OBJECT_ID":"2023-083M","EPOCH":"2026-01-16T23:58:03.255456","MEAN_MOTION":15.02540207,"ECCENTRICITY":0.0001444,"INCLINATION":43.0059,"RA_OF_ASC_NODE":2.7435,"ARG_OF_PERICENTER":270.193,"MEAN_ANOMALY":89.8747,"EPHEMERIS_TYPE":0,"CLASSIFICATION_TYPE":"U","NORAD_CAT_ID":56887,"ELEMENT_SET_NO":999,"REV_AT_EPOCH":14389,"BSTAR":1.73183e-7,"MEAN_MOTION_DOT":-2.01e-6,"MEAN_MOTION_DDOT":0},{"OBJECT_NAME":"STARLINK-6181","OBJECT_ID":"2023-083N","EPOCH":"2026-01-16T09:10:55.389792","MEAN_MOTION":15.02538944,"ECCENTRICITY":0.0001109,"INCLINATION":43.005,"RA_OF_ASC_NODE":5.8644,"ARG_OF_PERICENTER":273.5072,"MEAN_ANOMALY":86.5644,"EPHEMERIS_TYPE":0,"CLASSIFICATION_TYPE":"U","NORAD_CAT_ID":56888,"ELEMENT_SET_NO":999,"REV_AT_EPOCH":14380,"BSTAR":4.4715319e-5,"MEAN_MOTION_DOT":4.01e-6,"MEAN_MOTION_DDOT":0},{"OBJECT_NAME":"STARLINK-6169","OBJECT_ID":"2023-083P","EPOCH":"2026-01-16T07:49:35.214528","MEAN_MOTION":15.02536436,"ECCENTRICITY":0.00011979,"INCLINATION":43.0051,"RA_OF_ASC_NODE":6.2982,"ARG_OF_PERICENTER":268.7038,"MEAN_ANOMALY":91.3667,"EPHEMERIS_TYPE":0,"CLASSIFICATION_TYPE":"U","NORAD_CAT_ID":56889,"ELEMENT_SET_NO":999,"REV_AT_EPOCH":14379,"BSTAR":2.0943775e-5,"MEAN_MOTION_DOT":7.9e-7,"MEAN_MOTION_DDOT":0},{"OBJECT_NAME":"STARLINK-5528","OBJECT_ID":"2023-083Q","EPOCH":"2026-01-16T23:34:04.738656","MEAN_MOTION":15.02533274,"ECCENTRICITY":0.00012045,"INCLINATION":43.005,"RA_OF_ASC_NODE":2.6228,"ARG_OF_PERICENTER":272.0449,"MEAN_ANOMALY":88.0255,"EPHEMERIS_TYPE":0,"CLASSIFICATION_TYPE":"U","NORAD_CAT_ID":56890,"ELEMENT_SET_NO":999,"REV_AT_EPOCH":14389,"BSTAR":1.3953813e-5,"MEAN_MOTION_DOT":-1.5e-7,"MEAN_MOTION_DDOT":0},{"OBJECT_NAME":"STARLINK-6213","OBJECT_ID":"2023-083R","EPOCH":"2026-01-16T15:43:25.710816","MEAN_MOTION":15.02538278,"ECCENTRICITY":0.00012464,"INCLINATION":43.005,"RA_OF_ASC_NODE":4.4649,"ARG_OF_PERICENTER":267.5416,"MEAN_ANOMALY":92.5283,"EPHEMERIS_TYPE":0,"CLASSIFICATION_TYPE":"U","NORAD_CAT_ID":56891,"ELEMENT_SET_NO":999,"REV_AT_EPOCH":14384,"BSTAR":4.1619576e-5,"MEAN_MOTION_DOT":3.59e-6,"MEAN_MOTION_DDOT":0},{"OBJECT_NAME":"STARLINK-6219","OBJECT_ID":"2023-083S","EPOCH":"2026-01-16T15:24:14.759136","MEAN_MOTION":15.02543679,"ECCENTRICITY":0.00011648,"INCLINATION":43.0051,"RA_OF_ASC_NODE":4.3676,"ARG_OF_PERICENTER":273.5456,"MEAN_ANOMALY":86.5253,"EPHEMERIS_TYPE":0,"CLASSIFICATION_TYPE":"U","NORAD_CAT_ID":56892,"ELEMENT_SET_NO":999,"REV_AT_EPOCH":14384,"BSTAR":-3.7407509e-5,"MEAN_MOTION_DOT":-7.09e-6,"MEAN_MOTION_DDOT":0},{"OBJECT_NAME":"STARLINK-6216","OBJECT_ID":"2023-083T","EPOCH":"2026-01-16T15:38:37.813056","MEAN_MOTION":15.0253959,"ECCENTRICITY":0.00013019,"INCLINATION":43.0057,"RA_OF_ASC_NODE":4.4441,"ARG_OF_PERICENTER":275.3849,"MEAN_ANOMALY":84.6845,"EPHEMERIS_TYPE":0,"CLASSIFICATION_TYPE":"U","NORAD_CAT_ID":56893,"ELEMENT_SET_NO":999,"REV_AT_EPOCH":14396,"BSTAR":2.3889175e-5,"MEAN_MOTION_DOT":1.19e-6,"MEAN_MOTION_DDOT":0},{"OBJECT_NAME":"STARLINK-6144","OBJECT_ID":"2023-083U","EPOCH":"2026-01-16T15:25:51.045024","MEAN_MOTION":15.02539267,"ECCENTRICITY":0.00012272,"INCLINATION":43.0052,"RA_OF_ASC_NODE":4.3776,"ARG_OF_PERICENTER":264.8863,"MEAN_ANOMALY":95.1839,"EPHEMERIS_TYPE":0,"CLASSIFICATION_TYPE":"U","NORAD_CAT_ID":56894,"ELEMENT_SET_NO":999,"REV_AT_EPOCH":14396,"BSTAR":9.9025896e-5,"MEAN_MOTION_DOT":1.134e-5,"MEAN_MOTION_DDOT":0},{"OBJECT_NAME":"STARLINK-6208","OBJECT_ID":"2023-083V","EPOCH":"2026-01-16T23:19:41.569824","MEAN_MOTION":15.02539344,"ECCENTRICITY":0.00011591,"INCLINATION":43.005,"RA_OF_ASC_NODE":2.5474,"ARG_OF_PERICENTER":273.7166,"MEAN_ANOMALY":86.3543,"EPHEMERIS_TYPE":0,"CLASSIFICATION_TYPE":"U","NORAD_CAT_ID":56895,"ELEMENT_SET_NO":999,"REV_AT_EPOCH":14389,"BSTAR":1.6476181e-5,"MEAN_MOTION_DOT":1.9e-7,"MEAN_MOTION_DDOT":0}]
